NORAD_CAT_ID,OBJECT_NAME,OBJECT_TYPE,EPOCH,MEAN_MOTION,ECCENTRICITY,INCLINATION,RA_OF_ASC_NODE,ARG_OF_PERICENTER,MEAN_ANOMALY,BSTAR,MEAN_MOTION_DOT,MEAN_MOTION_DDOT,TLE_LINE0,TLE_LINE1,TLE_LINE2,SEMIMAJOR_AXIS,PERIOD,APOGEE,PERIGEE,DECAYED
55927.0,STARLINK-5919,PAYLOAD,2024-04-04 20:42:16,14.99143899,0.000313,69.9979,278.9326,269.6246,90.4555,8.3092e-05,9.19e-06,0.0,0 STARLINK-5919,1 55927U 23037P   24095.86269246  .00000919  00000-0  83092-4 0  9991,2 55927  69.9979 278.9326 0003130 269.6246  90.4555 14.99143899 58400,6947.677,96.055,571.717,567.367,0.0
55927.0,STARLINK-5919,PAYLOAD,2024-04-04 22:18:21,14.99143907,0.000313,69.9979,278.7641,269.6675,90.4126,7.963e-05,8.77e-06,0.0,0 STARLINK-5919,1 55927U 23037P   24095.92941623  .00000877  00000-0  79630-4 0  9990,2 55927  69.9979 278.7641 0003130 269.6675  90.4126 14.99143907 58071,6947.677,96.055,571.717,567.367,0.0
55927.0,STARLINK-5919,PAYLOAD,2024-04-05 12:43:05,14.99144386,0.0003105,69.998,277.2479,270.0003,90.0801,0.00010185,1.148e-05,0.0,0 STARLINK-5919,1 55927U 23037P   24096.52992965  .00001148  00000-0  10185-3 0  9993,2 55927  69.9980 277.2479 0003105 270.0003  90.0801 14.99144386 58167,6947.676,96.055,571.698,567.383,0.0
55927.0,STARLINK-5919,PAYLOAD,2024-04-05 20:43:30,14.99146625,0.0003094,69.9982,276.4056,270.2006,89.8798,0.00012111,1.383e-05,0.0,0 STARLINK-5919,1 55927U 23037P   24096.86354659  .00001383  00000-0  12111-3 0  9994,2 55927  69.9982 276.4056 0003094 270.2006  89.8798 14.99146625 58218,6947.669,96.055,571.683,567.384,0.0
55927.0,STARLINK-5919,PAYLOAD,2024-04-06 04:43:56,14.99129285,0.0002997,69.9989,275.5634,268.9994,91.0822,-5.5824e-05,-7.74e-06,0.0,0 STARLINK-5919,1 55927U 23037P   24097.19718157 -.00000774  00000-0 -55824-4 0  9992,2 55927  69.9989 275.5634 0002997 268.9994  91.0822 14.99129285 58607,6947.722,96.056,571.669,567.505,0.0
55927.0,STARLINK-5919,PAYLOAD,2024-04-06 11:08:24,14.99035286,0.0002759,69.9988,274.8912,264.1772,95.9073,-0.0010344,-0.00012641,0.0,0 STARLINK-5919,1 55927U 23037P   24097.46416754 -.00012641  00000-0 -10344-2 0  9992,2 55927  69.9988 274.8912 0002759 264.1772  95.9073 14.99035286 58647,6948.013,96.062,571.795,567.961,0.0
55927.0,STARLINK-5919,PAYLOAD,2024-04-06 19:09:04,14.98864443,0.0002882,69.9984,274.0486,272.9524,87.1305,-0.002782,-0.0003359,0.0,0 STARLINK-5919,1 55927U 23037P   24097.79797202 -.00033590  00000-0 -27820-2 0  9991,2 55927  69.9984 274.0486 0002882 272.9524  87.1305 14.98864443 58690,6948.541,96.073,572.408,568.403,0.0
55927.0,STARLINK-5919,PAYLOAD,2024-04-06 22:21:26,14.98735852,0.0001999,69.9985,273.7123,283.0159,77.0777,-0.004119,-0.00049409,0.0,0 STARLINK-5919,1 55927U 23037P   24097.93155498 -.00049409  00000-0 -41190-2 0  9994,2 55927  69.9985 273.7123 0001999 283.0159  77.0777 14.98735852 58377,6948.938,96.081,572.192,569.414,0.0
55927.0,STARLINK-5919,PAYLOAD,2024-04-07 04:45:55,14.98669855,0.0003236,69.9985,273.0388,265.8753,94.2036,-0.0045899,-0.00054914,0.0,0 STARLINK-5919,1 55927U 23037P   24098.19856016 -.00054914  00000-0 -45899-2 0  9994,2 55927  69.9985 273.0388 0003236 265.8753  94.2036 14.98669855 58757,6949.142,96.085,573.256,568.758,0.0
55927.0,STARLINK-5919,PAYLOAD,2024-04-07 17:34:30,14.98828372,0.0007521,69.9992,271.6909,268.4917,91.5381,-0.0024306,-0.00029365,0.0,0 STARLINK-5919,1 55927U 23037P   24098.73229999 -.00029365  00000-0 -24306-2 0  9990,2 55927  69.9992 271.6909 0007521 268.4917  91.5381 14.98828372 58833,6948.652,96.075,575.743,565.291,0.0
55927.0,STARLINK-5919,PAYLOAD,2024-04-08 06:00:02,14.98308293,0.0002923,69.9996,270.3858,267.9235,3.1097,0.0025634,0.0003061,0.0,0 STARLINK-5919,1 55927U 23037P   24099.25002315  .00030610  00000-0  25634-2 0  9997,2 55927  69.9996 270.3858 0002923 267.9235   3.1097 14.98308293 58911,6950.26,96.108,574.157,570.093,0.0
55927.0,STARLINK-5919,PAYLOAD,2024-04-08 14:00:01,14.98359232,0.0002976,70.0,269.5453,266.2713,2.1625,-0.0032211,-0.00038346,0.0,0 STARLINK-5919,1 55927U 23037P   24099.58334491 -.00038346  00000-0 -32211-2 0  9991,2 55927  70.0000 269.5453 0002976 266.2713   2.1625 14.98359232  5784,6950.102,96.105,574.036,569.899,0.0
55927.0,STARLINK-5919,PAYLOAD,2024-04-08 22:00:00,14.98315708,0.0002996,70.0,268.7046,271.8941,354.0443,0.0018971,0.00022608,0.0,0 STARLINK-5919,1 55927U 23037P   24099.91667824  .00022608  00000-0  18971-2 0  9996,2 55927  70.0000 268.7046 0002996 271.8941 354.0443 14.98315708 59012,6950.237,96.108,574.184,570.02,0.0
55927.0,STARLINK-5919,PAYLOAD,2024-04-09 00:00:02,14.98334724,0.0003012,69.9997,268.4944,271.4237,83.941,-0.001467,-0.00017555,0.0,0 STARLINK-5919,1 55927U 23037P   24100.00002315 -.00017555  00000-0 -14670-2 0  9996,2 55927  69.9997 268.4944 0003012 271.4237  83.9410 14.98334724  5799,6950.178,96.107,574.137,569.95,0.0
55927.0,STARLINK-5919,PAYLOAD,2024-04-09 14:00:01,14.98355289,0.0003069,70.0005,267.0234,265.5332,355.3514,-0.003074,-0.00036605,0.0,0 STARLINK-5919,1 55927U 23037P   24100.58334491 -.00036605  00000-0 -30740-2 0  9995,2 55927  70.0005 267.0234 0003069 265.5332 355.3514 14.98355289  5690,6950.115,96.105,574.113,569.847,0.0
55927.0,STARLINK-5919,PAYLOAD,2024-04-09 22:00:00,14.98317961,0.0003075,70.0003,266.1828,271.9344,346.452,0.001938,0.000231,0.0,0 STARLINK-5919,1 55927U 23037P   24100.91667824  .00023100  00000-0  19380-2 0  9992,2 55927  70.0003 266.1828 0003075 271.9344 346.4520 14.98317961 59162,6950.23,96.108,574.232,569.958,0.0
55927.0,STARLINK-5919,PAYLOAD,2024-04-10 04:51:42,14.98331556,0.000294,70.0008,265.463,268.7991,91.2832,7.0828e-05,7.52e-06,0.0,0 STARLINK-5919,1 55927U 23037P   24101.20257939  .00000752  00000-0  70828-4 0  9991,2 55927  70.0008 265.4630 0002940 268.7991  91.2832 14.98331556 59204,6950.188,96.107,574.096,570.01,0.0
55927.0,STARLINK-5919,PAYLOAD,2024-04-10 20:53:03,14.98330899,0.0002892,69.9994,263.7799,269.0769,91.0059,5.0176e-05,5.06e-06,0.0,0 STARLINK-5919,1 55927U 23037P   24101.87018020  .00000506  00000-0  50176-4 0  9991,2 55927  69.9994 263.7799 0002892 269.0769  91.0059 14.98330899 58965,6950.19,96.107,574.065,570.045,0.0
55927.0,STARLINK-5919,PAYLOAD,2024-04-11 06:00:00,14.98302726,0.0003094,70.0009,262.8208,269.5454,338.7784,0.0047008,0.0005641,0.0,0 STARLINK-5919,1 55927U 23037P   24102.25001157  .00056410  00000-0  47008-2 0  9990,2 55927  70.0009 262.8208 0003094 269.5454 338.7784 14.98302726 59360,6950.277,96.109,574.293,569.992,0.0
55927.0,STARLINK-5919,PAYLOAD,2024-04-11 14:00:01,14.98367323,0.000314,70.0012,261.9805,269.596,336.1962,-0.0039195,-0.00046596,0.0,0 STARLINK-5919,1 55927U 23037P   24102.58334491 -.00046596  00000-0 -39195-2 0  9990,2 55927  70.0012 261.9805 0003140 269.5960 336.1962 14.98367323  5793,6950.077,96.105,574.125,569.76,0.0
55927.0,STARLINK-5919,PAYLOAD,2024-04-11 22:00:00,14.98326476,0.0003092,70.0009,261.14,274.3198,328.9798,0.00040092,4.694e-05,0.0,0 STARLINK-5919,1 55927U 23037P   24102.91667824  .00004694  00000-0  40092-3 0  9996,2 55927  70.0009 261.1400 0003092 274.3198 328.9798 14.98326476 59468,6950.204,96.107,574.218,569.92,0.0
55927.0,STARLINK-5919,PAYLOAD,2024-04-12 14:32:33,14.98330909,0.0002886,69.9996,259.4034,270.35,89.7329,9.4659e-05,1.037e-05,0.0,0 STARLINK-5919,1 55927U 23037P   24103.60593857  .00001037  00000-0  94659-4 0  9994,2 55927  69.9996 259.4034 0002886 270.3500  89.7329 14.98330909 59228,6950.19,96.107,574.061,570.049,0.0
55927.0,STARLINK-5919,PAYLOAD,2024-04-13 12:58:26,14.98329363,0.000275,70.0,257.0475,262.9183,97.1663,1.9728e-05,1.42e-06,0.0,0 STARLINK-5919,1 55927U 23037P   24104.54058116  .00000142  00000-0  19728-4 0  9992,2 55927  70.0000 257.0475 0002750 262.9183  97.1663 14.98329363 59703,6950.195,96.107,573.971,570.149,0.0
55927.0,STARLINK-5919,PAYLOAD,2024-04-13 14:34:34,14.98328312,0.0002771,70.0001,256.8791,261.3192,98.7653,2.3396e-06,-6.5e-07,0.0,0 STARLINK-5919,1 55927U 23037P   24104.60734196 -.00000065  00000-0  23396-5 0  9990,2 55927  70.0001 256.8791 0002771 261.3192  98.7653 14.98328312 59370,6950.198,96.107,573.989,570.137,0.0
55927.0,STARLINK-5919,PAYLOAD,2024-04-13 19:22:58,14.98326877,0.0002813,70.0002,256.3746,264.3546,95.7292,-2.247e-05,-3.61e-06,0.0,0 STARLINK-5919,1 55927U 23037P   24104.80762357 -.00000361  00000-0 -22470-4 0  9993,2 55927  70.0002 256.3746 0002813 264.3546  95.7292 14.98326877 59403,6950.203,96.107,574.023,570.112,0.0
55927.0,STARLINK-5919,PAYLOAD,2024-04-14 13:00:26,14.98333867,0.000343,69.9991,254.5216,273.3327,86.7439,0.0001293,1.45e-05,0.0,0 STARLINK-5919,1 55927U 23037P   24105.54197615  .00001450  00000-0  12930-3 0  9991,2 55927  69.9991 254.5216 0003430 273.3327  86.7439 14.98333867 59851,6950.181,96.107,574.43,569.662,0.0
55927.0,STARLINK-5919,PAYLOAD,2024-04-14 19:24:58,14.98340187,0.0003137,69.9999,253.8494,267.6448,92.4351,0.00019996,2.294e-05,0.0,0 STARLINK-5919,1 55927U 23037P   24105.80901023  .00002294  00000-0  19996-3 0  9992,2 55927  69.9999 253.8494 0003137 267.6448  92.4351 14.98340187 59897,6950.161,96.106,574.207,569.846,0.0
55927.0,STARLINK-5919,PAYLOAD,2024-04-15 13:02:27,14.98334069,0.0002916,70.0007,251.9993,258.6957,101.3875,0.00018124,2.07e-05,0.0,0 STARLINK-5919,1 55927U 23037P   24106.54337354  .00002070  00000-0  18124-3 0  9998,2 55927  70.0007 251.9993 0002916 258.6957 101.3875 14.98334069 60000,6950.18,96.107,574.072,570.019,0.0
55927.0,STARLINK-5919,PAYLOAD,2024-04-15 19:26:59,14.98334864,0.0002944,70.0007,251.3258,260.6615,99.4211,0.00017723,2.023e-05,0.0,0 STARLINK-5919,1 55927U 23037P   24106.81041323  .00002023  00000-0  17723-3 0  9998,2 55927  70.0007 251.3258 0002944 260.6615  99.4211 14.98334864 59702,6950.178,96.107,574.089,569.997,0.0
55927.0,STARLINK-5919,PAYLOAD,2024-04-16 13:04:28,14.98335115,0.0003132,69.9998,249.4716,272.1029,87.9771,7.2209e-06,-7e-08,0.0,0 STARLINK-5919,1 55927U 23037P   24107.54477533 -.00000007  00000-0  72209-5 0  9998,2 55927  69.9998 249.4716 0003132 272.1029  87.9771 14.98335115 60156,6950.177,96.107,574.219,569.865,0.0
